{
    "links": {
        "self": "http://www.neowsapp.com/rest/v1/neo/3893550?api_key=iIulBulltgU6a56xZRHN4H3l9WmuAYTsLGpBGhQ2"
    },
    "id": "3893550",
    "neo_reference_id": "3893550",
    "name": "(2019 WE3)",
    "designation": "2019 WE3",
    "nasa_jpl_url": "http://ssd.jpl.nasa.gov/sbdb.cgi?sstr=3893550",
    "absolute_magnitude_h": 25.3,
    "estimated_diameter": {
        "kilometers": {
            "estimated_diameter_min": 0.0231502122,
            "estimated_diameter_max": 0.0517654482
        },
        "meters": {
            "estimated_diameter_min": 23.150212221,
            "estimated_diameter_max": 51.7654482198
        },
        "miles": {
            "estimated_diameter_min": 0.0143848705,
            "estimated_diameter_max": 0.0321655483
        },
        "feet": {
            "estimated_diameter_min": 75.9521422633,
            "estimated_diameter_max": 169.8341531374
        }
    },
    "is_potentially_hazardous_asteroid": false,
    "close_approach_data": [
        {
            "close_approach_date": "2019-11-27",
            "close_approach_date_full": "2019-Nov-27 20:39",
            "epoch_date_close_approach": 1574887140000,
            "relative_velocity": {
                "kilometers_per_second": "5.6299506957",
                "kilometers_per_hour": "20267.8225044088",
                "miles_per_hour": "12593.6367111422"
            },
            "miss_distance": {
                "astronomical": "0.1096518671",
                "lunar": "42.6545763019",
                "kilometers": "16403685.759683077",
                "miles": "10192777.6856853826"
            },
            "orbiting_body": "Earth"
        }
    ],
    "orbital_data": {
        "orbit_id": "1",
        "orbit_determination_date": "2019-11-28 01:12:03",
        "first_observation_date": "2019-11-26",
        "last_observation_date": "2019-11-27",
        "data_arc_in_days": 1,
        "observations_used": 8,
        "orbit_uncertainty": "9",
        "minimum_orbit_intersection": ".107",
        "jupiter_tisserand_invariant": "3.185",
        "epoch_osculation": "2458814.5",
        "eccentricity": ".5724009022816271",
        "semi_major_axis": "2.556042921253611",
        "inclination": ".2641249921478433",
        "ascending_node_longitude": "2.84107136873752",
        "orbital_period": "1492.624755623933",
        "perihelion_distance": "1.092961646857478",
        "perihelion_argument": "66.9477747130662",
        "aphelion_distance": "4.019124195649744",
        "perihelion_time": "2458818.548970788966",
        "mean_anomaly": "359.0234454583875",
        "mean_motion": ".2411858698199845",
        "equinox": "J2000",
        "orbit_class": {
            "orbit_class_type": "AMO",
            "orbit_class_description": "Near-Earth asteroid orbits similar to that of 1221 Amor",
            "orbit_class_range": "1.017 AU < q (perihelion) < 1.3 AU"
        }
    },
    "is_sentry_object": false
}